0 DELTA 1 DEB
1 07017U 73086H   13281.91353933  .00000093  00000-0  86315-3 0  7963
2 07017 102.0639 038.1415 0150398 173.3167 307.5451 12.51335785807565
0 DELTA 1 DEB
1 07017U 73086H   13284.15266355  .00000074  00000-0  74480-3 0  7973
2 07017 102.0642 040.4081 0150352 169.1144 314.3355 12.51336746807840
0 DELTA 1 DEB
1 07017U 73086H   13286.87052360  .00000104  00000-0  93176-3 0  7981
2 07017 102.0650 043.1591 0150277 164.0056 317.7499 12.51337984808186
0 DELTA 1 DEB
1 07017U 73086H   13289.57709762  .00000118  00000-0  10198-2 0  7994
2 07017 102.0654 045.8990 0150195 158.9134 270.3369 12.51338542808529
0 DELTA 1 DEB
1 07017U 73086H   13292.14757211  .00000149  00000-0  12104-2 0  8009
2 07017 102.0653 048.5011 0150132 154.0651 329.8418 12.51339428808848
0 DELTA 1 DEB
1 07017U 73086H   13295.90389676  .00000111  00000-0  97257-3 0  8015
2 07017 102.0651 052.3037 0150025 146.9806 331.3840 12.51340476809315
